[{"OBJECT_NAME":"COSMOS 2558","OBJECT_ID":"2022-089A","EPOCH":"2022-08-29T16:42:47.460096","MEAN_MOTION":15.4146896,"ECCENTRICITY":0.0011896,"INCLINATION":97.2354,"RA_OF_ASC_NODE":339.6122,"ARG_OF_PERICENTER":164.9166,"MEAN_ANOMALY":195.2438,"EPHEMERIS_TYPE":0,"CLASSIFICATION_TYPE":"U","NORAD_CAT_ID":53323,"ELEMENT_SET_NO":999,"REV_AT_EPOCH":429,"BSTAR":0.0002693,"MEAN_MOTION_DOT":0.00011224,"MEAN_MOTION_DDOT":0},{"OBJECT_NAME":"SL-4 R\/B","OBJECT_ID":"2022-089B","EPOCH":"2022-08-29T12:30:30.363264","MEAN_MOTION":15.74471543,"ECCENTRICITY":0.0096466,"INCLINATION":97.2538,"RA_OF_ASC_NODE":340.8544,"ARG_OF_PERICENTER":325.2983,"MEAN_ANOMALY":34.2011,"EPHEMERIS_TYPE":0,"CLASSIFICATION_TYPE":"U","NORAD_CAT_ID":53324,"ELEMENT_SET_NO":999,"REV_AT_EPOCH":435,"BSTAR":0.00032782,"MEAN_MOTION_DOT":0.00063293,"MEAN_MOTION_DDOT":3.3527e-6},{"OBJECT_NAME":"2022-090A","OBJECT_ID":"2022-090A","EPOCH":"2022-08-29T10:46:24.000096","MEAN_MOTION":15.20871329,"ECCENTRICITY":0.0008125,"INCLINATION":97.4694,"RA_OF_ASC_NODE":314.1105,"ARG_OF_PERICENTER":159.1416,"MEAN_ANOMALY":27.8983,"EPHEMERIS_TYPE":0,"CLASSIFICATION_TYPE":"U","NORAD_CAT_ID":53346,"ELEMENT_SET_NO":999,"REV_AT_EPOCH":385,"BSTAR":-0.00013751,"MEAN_MOTION_DOT":-3.106e-5,"MEAN_MOTION_DDOT":0},{"OBJECT_NAME":"2022-090B","OBJECT_ID":"2022-090B","EPOCH":"2022-08-29T13:07:26.741856","MEAN_MOTION":15.23759302,"ECCENTRICITY":0.0013022,"INCLINATION":97.4711,"RA_OF_ASC_NODE":314.2552,"ARG_OF_PERICENTER":182.9056,"MEAN_ANOMALY":293.6708,"EPHEMERIS_TYPE":0,"CLASSIFICATION_TYPE":"U","NORAD_CAT_ID":53347,"ELEMENT_SET_NO":999,"REV_AT_EPOCH":386,"BSTAR":0.00018668,"MEAN_MOTION_DOT":4.426e-5,"MEAN_MOTION_DDOT":0},{"OBJECT_NAME":"2022-090C","OBJECT_ID":"2022-090C","EPOCH":"2022-08-29T13:04:39.715104","MEAN_MOTION":15.23885436,"ECCENTRICITY":0.0012145,"INCLINATION":97.47,"RA_OF_ASC_NODE":314.2522,"ARG_OF_PERICENTER":186.0769,"MEAN_ANOMALY":286.2101,"EPHEMERIS_TYPE":0,"CLASSIFICATION_TYPE":"U","NORAD_CAT_ID":53348,"ELEMENT_SET_NO":999,"REV_AT_EPOCH":386,"BSTAR":0.00026048,"MEAN_MOTION_DOT":6.228e-5,"MEAN_MOTION_DDOT":0},{"OBJECT_NAME":"CZ-4B R\/B","OBJECT_ID":"2022-090D","EPOCH":"2022-08-29T12:17:55.755168","MEAN_MOTION":15.60980133,"ECCENTRICITY":0.0150853,"INCLINATION":97.5138,"RA_OF_ASC_NODE":315.838,"ARG_OF_PERICENTER":296.1453,"MEAN_ANOMALY":62.4357,"EPHEMERIS_TYPE":0,"CLASSIFICATION_TYPE":"U","NORAD_CAT_ID":53349,"ELEMENT_SET_NO":999,"REV_AT_EPOCH":396,"BSTAR":0.00025435,"MEAN_MOTION_DOT":0.000371,"MEAN_MOTION_DDOT":2.6399e-6},{"OBJECT_NAME":"SBIRS GEO-6 (USA 336)","OBJECT_ID":"2022-092A","EPOCH":"2022-08-29T12:34:24.900384","MEAN_MOTION":1.00260266,"ECCENTRICITY":0.0002135,"INCLINATION":6.5577,"RA_OF_ASC_NODE":312.3683,"ARG_OF_PERICENTER":334.2429,"MEAN_ANOMALY":94.8657,"EPHEMERIS_TYPE":0,"CLASSIFICATION_TYPE":"U","NORAD_CAT_ID":53355,"ELEMENT_SET_NO":999,"REV_AT_EPOCH":32,"BSTAR":0,"MEAN_MOTION_DOT":1.16e-6,"MEAN_MOTION_DDOT":0},{"OBJECT_NAME":"ATLAS 5 CENTAUR R\/B","OBJECT_ID":"2022-092B","EPOCH":"2022-08-29T05:50:26.888064","MEAN_MOTION":1.99524756,"ECCENTRICITY":0.5658671,"INCLINATION":16.4281,"RA_OF_ASC_NODE":310.4225,"ARG_OF_PERICENTER":182.1432,"MEAN_ANOMALY":173.5825,"EPHEMERIS_TYPE":0,"CLASSIFICATION_TYPE":"U","NORAD_CAT_ID":53356,"ELEMENT_SET_NO":999,"REV_AT_EPOCH":49,"BSTAR":0,"MEAN_MOTION_DOT":-3.5e-7,"MEAN_MOTION_DDOT":0},{"OBJECT_NAME":"PRC TEST SPACECRAFT2","OBJECT_ID":"2022-093A","EPOCH":"2022-08-29T20:31:40.620864","MEAN_MOTION":15.30897529,"ECCENTRICITY":0.0177919,"INCLINATION":49.9955,"RA_OF_ASC_NODE":38.5155,"ARG_OF_PERICENTER":250.8892,"MEAN_ANOMALY":263.583,"EPHEMERIS_TYPE":0,"CLASSIFICATION_TYPE":"U","NORAD_CAT_ID":53357,"ELEMENT_SET_NO":999,"REV_AT_EPOCH":386,"BSTAR":2.6213e-5,"MEAN_MOTION_DOT":7.82e-6,"MEAN_MOTION_DDOT":0},{"OBJECT_NAME":"CZ-2F R\/B","OBJECT_ID":"2022-093B","EPOCH":"2022-08-29T11:47:51.738720","MEAN_MOTION":15.32647841,"ECCENTRICITY":0.0179128,"INCLINATION":49.9915,"RA_OF_ASC_NODE":40.2215,"ARG_OF_PERICENTER":251.0921,"MEAN_ANOMALY":107.0544,"EPHEMERIS_TYPE":0,"CLASSIFICATION_TYPE":"U","NORAD_CAT_ID":53358,"ELEMENT_SET_NO":999,"REV_AT_EPOCH":380,"BSTAR":0.00015298,"MEAN_MOTION_DOT":7.729e-5,"MEAN_MOTION_DDOT":0},{"OBJECT_NAME":"CZ-2F DEB","OBJECT_ID":"2022-093C","EPOCH":"2022-08-29T10:36:46.310688","MEAN_MOTION":15.25735291,"ECCENTRICITY":0.0228163,"INCLINATION":50.3071,"RA_OF_ASC_NODE":42.6232,"ARG_OF_PERICENTER":265.5499,"MEAN_ANOMALY":91.9365,"EPHEMERIS_TYPE":0,"CLASSIFICATION_TYPE":"U","NORAD_CAT_ID":53359,"ELEMENT_SET_NO":999,"REV_AT_EPOCH":378,"BSTAR":0.0014768,"MEAN_MOTION_DOT":0.00083274,"MEAN_MOTION_DDOT":0},{"OBJECT_NAME":"CZ-2F DEB","OBJECT_ID":"2022-093D","EPOCH":"2022-08-29T12:16:27.202080","MEAN_MOTION":15.21219471,"ECCENTRICITY":0.024006,"INCLINATION":50.3308,"RA_OF_ASC_NODE":43.1095,"ARG_OF_PERICENTER":259.4972,"MEAN_ANOMALY":97.8859,"EPHEMERIS_TYPE":0,"CLASSIFICATION_TYPE":"U","NORAD_CAT_ID":53360,"ELEMENT_SET_NO":999,"REV_AT_EPOCH":377,"BSTAR":0.0017102,"MEAN_MOTION_DOT":0.00087317,"MEAN_MOTION_DDOT":0},{"OBJECT_NAME":"CZ-2F DEB","OBJECT_ID":"2022-093E","EPOCH":"2022-08-29T11:59:15.775296","MEAN_MOTION":14.97425804,"ECCENTRICITY":0.0333052,"INCLINATION":49.7537,"RA_OF_ASC_NODE":46.4521,"ARG_OF_PERICENTER":248.0693,"MEAN_ANOMALY":108.4538,"EPHEMERIS_TYPE":0,"CLASSIFICATION_TYPE":"U","NORAD_CAT_ID":53361,"ELEMENT_SET_NO":999,"REV_AT_EPOCH":372,"BSTAR":0.0018511,"MEAN_MOTION_DOT":0.00071426,"MEAN_MOTION_DDOT":0},{"OBJECT_NAME":"CZ-2F DEB","OBJECT_ID":"2022-093F","EPOCH":"2022-08-29T13:16:11.149248","MEAN_MOTION":14.94200395,"ECCENTRICITY":0.0346326,"INCLINATION":49.8071,"RA_OF_ASC_NODE":46.8479,"ARG_OF_PERICENTER":244.8257,"MEAN_ANOMALY":111.6396,"EPHEMERIS_TYPE":0,"CLASSIFICATION_TYPE":"U","NORAD_CAT_ID":53362,"ELEMENT_SET_NO":999,"REV_AT_EPOCH":372,"BSTAR":0.001844,"MEAN_MOTION_DOT":0.00069103,"MEAN_MOTION_DDOT":0},{"OBJECT_NAME":"CZ-2F DEB","OBJECT_ID":"2022-093G","EPOCH":"2022-08-29T12:02:35.938176","MEAN_MOTION":15.53101556,"ECCENTRICITY":0.0158919,"INCLINATION":50.0269,"RA_OF_ASC_NODE":38.4869,"ARG_OF_PERICENTER":265.2751,"MEAN_ANOMALY":204.8123,"EPHEMERIS_TYPE":0,"CLASSIFICATION_TYPE":"U","NORAD_CAT_ID":53363,"ELEMENT_SET_NO":999,"REV_AT_EPOCH":383,"BSTAR":0.0074428,"MEAN_MOTION_DOT":0.00897662,"MEAN_MOTION_DDOT":0},{"OBJECT_NAME":"CZ-2F DEB","OBJECT_ID":"2022-093H","EPOCH":"2022-08-29T07:05:07.585152","MEAN_MOTION":15.0004816,"ECCENTRICITY":0.0110506,"INCLINATION":50.0291,"RA_OF_ASC_NODE":47.1773,"ARG_OF_PERICENTER":297.388,"MEAN_ANOMALY":61.5874,"EPHEMERIS_TYPE":0,"CLASSIFICATION_TYPE":"U","NORAD_CAT_ID":53364,"ELEMENT_SET_NO":999,"REV_AT_EPOCH":369,"BSTAR":3.6361e-5,"MEAN_MOTION_DOT":2.11e-6,"MEAN_MOTION_DDOT":0},{"OBJECT_NAME":"DANURI (KPLO)","OBJECT_ID":"2022-094A","EPOCH":"2022-08-04T23:16:44.399712","MEAN_MOTION":16.09976711,"ECCENTRICITY":0.00033,"INCLINATION":29.5,"RA_OF_ASC_NODE":147.2458,"ARG_OF_PERICENTER":140.47,"MEAN_ANOMALY":307.52,"EPHEMERIS_TYPE":0,"CLASSIFICATION_TYPE":"U","NORAD_CAT_ID":53365,"ELEMENT_SET_NO":999,"REV_AT_EPOCH":0,"BSTAR":0,"MEAN_MOTION_DOT":1.843e-5,"MEAN_MOTION_DDOT":-5.8274e-6}]
